[{"OBJECT_NAME":"A-SEANSAT-PG1","OBJECT_ID":"2023-091AH","EPOCH":"2026-03-09T22:32:06.495648","MEAN_MOTION":15.33422293,"ECCENTRICITY":0.00088895,"INCLINATION":97.5184,"RA_OF_ASC_NODE":136.6191,"ARG_OF_PERICENTER":78.3219,"MEAN_ANOMALY":281.902,"EPHEMERIS_TYPE":0,"CLASSIFICATION_TYPE":"U","NORAD_CAT_ID":57197,"ELEMENT_SET_NO":999,"REV_AT_EPOCH":14948,"BSTAR":0.0007038551,"MEAN_MOTION_DOT":0.00022724,"MEAN_MOTION_DDOT":0},{"OBJECT_NAME":"STARLINK-32860","OBJECT_ID":"2025-022C","EPOCH":"2026-03-09T13:00:21.624480","MEAN_MOTION":15.30194069,"ECCENTRICITY":0.00011095,"INCLINATION":53.1579,"RA_OF_ASC_NODE":130.5728,"ARG_OF_PERICENTER":78.3307,"MEAN_ANOMALY":281.7818,"EPHEMERIS_TYPE":0,"CLASSIFICATION_TYPE":"U","NORAD_CAT_ID":62856,"ELEMENT_SET_NO":999,"REV_AT_EPOCH":6187,"BSTAR":0.00097989096,"MEAN_MOTION_DOT":0.00028769,"MEAN_MOTION_DDOT":0}]
